     2              NAVIGATION DATA                         RINEX VERSION / TYPE
CCRINEXN V1.6.0 UX  CDDIS               29-AUG-19 19:31     PGM / RUN BY / DATE 
IGS BROADCAST EPHEMERIS FILE                                COMMENT             
    0.5588D-08  0.1490D-07 -0.5960D-07 -0.1192D-06          ION ALPHA           
    0.7782D+05  0.3277D+05 -0.6554D+05 -0.2621D+06          ION BETA            
    0.931322574615D-09 0.000000000000D+00   503808     2068 DELTA-UTC: A0,A1,T,W
    18                                                      LEAP SECONDS        
                                                            END OF HEADER       
12 19  8 28 16  0  0.0 0.209612306207D-03-0.375166564481D-11 0.000000000000D+00
    0.360000000000D+02 0.525312500000D+02 0.364015162693D-08 0.106649099808D+01
    0.265426933765D-05 0.749162968714D-02 0.133253633976D-04 0.515359891701D+04
    0.316800000000D+06-0.111758708954D-06-0.356866862194D+00-0.372529029846D-08
    0.981955102143D+00 0.131156250000D+03 0.110711789648D+01-0.765281877062D-08
   -0.352514683652D-09 0.100000000000D+01 0.206800000000D+04 0.000000000000D+00
    0.200000000000D+01 0.000000000000D+00-0.125728547573D-07 0.360000000000D+02
    0.313278000000D+06 0.400000000000D+01 0.000000000000D+00 0.000000000000D+00
13 19  8 28 16  0  0.0-0.473419204354D-04 0.193267624127D-11 0.000000000000D+00
    0.140000000000D+02 0.309687500000D+02 0.449697303126D-08-0.260917513620D+01
    0.171363353729D-05 0.368305819575D-02 0.783242285252D-05 0.515366062546D+04
    0.316800000000D+06 0.745058059692D-08-0.239587191672D+01-0.316649675369D-07
    0.967957970718D+00 0.233187500000D+03 0.121587126599D+01-0.785639867911D-08
    0.533950812623D-09 0.100000000000D+01 0.206800000000D+04 0.000000000000D+00
    0.200000000000D+01 0.000000000000D+00-0.111758708954D-07 0.140000000000D+02
    0.316782000000D+06 0.400000000000D+01 0.000000000000D+00 0.000000000000D+00
15 19  8 28 16  0  0.0-0.290980096906D-03 0.272848410532D-11 0.000000000000D+00
    0.130000000000D+02 0.268750000000D+02 0.525129016589D-08-0.260741702904D+01
    0.136159360409D-05 0.116595014697D-01 0.947527587414D-05 0.515374595642D+04
    0.316800000000D+06 0.130385160446D-06-0.261692516708D+01-0.152736902237D-06
    0.928291894969D+00 0.178343750000D+03 0.802336436030D+00-0.814998233662D-08
    0.665027701073D-09 0.100000000000D+01 0.206800000000D+04 0.000000000000D+00
    0.200000000000D+01 0.000000000000D+00-0.107102096081D-07 0.130000000000D+02
    0.314982000000D+06 0.400000000000D+01 0.000000000000D+00 0.000000000000D+00
16 19  8 28 16  0  0.0-0.690212473273D-04-0.341060513165D-11 0.000000000000D+00
    0.160000000000D+02 0.520937500000D+02 0.364086594239D-08-0.762576560900D+00
    0.292621552944D-05 0.107596477028D-01 0.117719173431D-04 0.515363575935D+04
    0.316800000000D+06 0.206753611565D-06-0.337973515119D+00 0.124797224999D-06
    0.982286567196D+00 0.162250000000D+03 0.581898534364D+00-0.765353308609D-08
   -0.227152318949D-09 0.100000000000D+01 0.206800000000D+04 0.000000000000D+00
    0.200000000000D+01 0.000000000000D+00-0.107102096081D-07 0.160000000000D+02
    0.309618000000D+06 0.400000000000D+01 0.000000000000D+00 0.000000000000D+00
17 19  8 28 16  0  0.0 0.115082599223D-03 0.693489710102D-11 0.000000000000D+00
    0.510000000000D+02 0.129062500000D+03 0.415195866003D-08-0.181185688222D+01
    0.700354576111D-05 0.130420320202D-01 0.384449958801D-05 0.515356457901D+04
    0.316800000000D+06 0.203028321266D-06 0.676126929663D+00 0.163912773132D-06
    0.984291603216D+00 0.316406250000D+03-0.170476997243D+01-0.803319175754D-08
    0.502878089748D-09 0.100000000000D+01 0.206800000000D+04 0.000000000000D+00
    0.200000000000D+01 0.000000000000D+00-0.111758708954D-07 0.510000000000D+02
    0.309618000000D+06 0.400000000000D+01 0.000000000000D+00 0.000000000000D+00
18 19  8 28 16  0  0.0 0.814106315374D-04 0.295585778076D-11 0.000000000000D+00
    0.160000000000D+02-0.733750000000D+02 0.493056252058D-08 0.212284934862D+01
   -0.414066016674D-05 0.157035957091D-01 0.640749931335D-06 0.515368029785D+04
    0.316800000000D+06 0.130385160446D-06 0.161796605316D+01-0.244006514549D-06
    0.954983982253D+00 0.361625000000D+03 0.142550497928D+01-0.838142054838D-08
   -0.218937691062D-09 0.100000000000D+01 0.206800000000D+04 0.000000000000D+00
    0.200000000000D+01 0.000000000000D+00-0.558793544769D-08 0.160000000000D+02
    0.309618000000D+06 0.400000000000D+01 0.000000000000D+00 0.000000000000D+00
19 19  8 28 16  0  0.0-0.274848192930D-03 0.511590769747D-11 0.000000000000D+00
    0.170000000000D+02 0.120906250000D+03 0.435911014586D-08 0.982550408860D+00
    0.621937215328D-05 0.948173145298D-02 0.418722629547D-05 0.515364453888D+04
    0.316800000000D+06-0.156462192535D-06 0.722188911050D+00-0.912696123123D-07
    0.982180824551D+00 0.312093750000D+03 0.148997090459D+01-0.835749098019D-08
    0.430732227440D-09 0.100000000000D+01 0.206800000000D+04 0.000000000000D+00
    0.200000000000D+01 0.000000000000D+00-0.153668224812D-07 0.170000000000D+02
    0.309618000000D+06 0.400000000000D+01 0.000000000000D+00 0.000000000000D+00
21 19  8 28 16  0  0.0-0.128517858684D-03 0.659383658785D-11 0.000000000000D+00
    0.860000000000D+02-0.520937500000D+02 0.550130057982D-08 0.544157575422D+00
   -0.296533107758D-05 0.245037626009D-01 0.126473605633D-05 0.515366662788D+04
    0.316800000000D+06-0.214204192162D-06 0.160831124149D+01-0.197440385819D-06
    0.949328194667D+00 0.357593750000D+03-0.141746942482D+01-0.926288583637D-08
   -0.199294015681D-09 0.100000000000D+01 0.206800000000D+04 0.000000000000D+00
    0.200000000000D+01 0.000000000000D+00-0.102445483208D-07 0.860000000000D+02
    0.309618000000D+06 0.400000000000D+01 0.000000000000D+00 0.000000000000D+00
23 19  8 28 16  0  0.0-0.169865321368D-03 0.204636307899D-11 0.000000000000D+00
    0.102000000000D+03 0.449375000000D+02 0.499377943953D-08-0.308371455121D+01
    0.216439366341D-05 0.132352758665D-01 0.829622149467D-05 0.515376609421D+04
    0.316800000000D+06 0.409781932831D-07-0.254053189366D+01-0.149011611938D-06
    0.943526761883D+00 0.207187500000D+03-0.223125896603D+01-0.801640534403D-08
    0.577524056195D-09 0.100000000000D+01 0.206800000000D+04 0.000000000000D+00
    0.280000000000D+01 0.000000000000D+00-0.200234353542D-07 0.102000000000D+03
    0.309618000000D+06 0.400000000000D+01 0.000000000000D+00 0.000000000000D+00
24 19  8 28 16  0  0.0-0.139418989420D-05-0.454747350886D-12 0.000000000000D+00
    0.320000000000D+02-0.168750000000D+02 0.539808199464D-08 0.267758027857D+01
   -0.936910510063D-06 0.855882023461D-02 0.501796603203D-05 0.515369257736D+04
    0.316800000000D+06-0.186264514923D-07-0.152621879325D+01-0.132247805595D-06
    0.937580078888D+00 0.270781250000D+03 0.603167211284D+00-0.842785105382D-08
   -0.275011455331D-09 0.100000000000D+01 0.206800000000D+04 0.000000000000D+00
    0.200000000000D+01 0.000000000000D+00 0.279396772385D-08 0.320000000000D+02
    0.309622000000D+06 0.400000000000D+01 0.000000000000D+00 0.000000000000D+00
25 19  8 28 16  0  0.0-0.967690721154D-05-0.181898940355D-11 0.000000000000D+00
    0.750000000000D+02 0.405625000000D+02 0.397980863215D-08 0.692154850319D+00
    0.196881592274D-05 0.838815409224D-02 0.129863619804D-04 0.515367560577D+04
    0.316800000000D+06-0.173225998878D-06-0.422311465070D+00 0.633299350738D-07
    0.969306990384D+00 0.134781250000D+03 0.900754931533D+00-0.777996692399D-08
   -0.425732019162D-09 0.100000000000D+01 0.206800000000D+04 0.000000000000D+00
    0.200000000000D+01 0.000000000000D+00 0.558793544769D-08 0.750000000000D+02
    0.310680000000D+06 0.400000000000D+01 0.000000000000D+00 0.000000000000D+00
26 19  8 28 16  0  0.0 0.258204527199D-04 0.886757334229D-11 0.000000000000D+00
    0.130000000000D+02 0.303437500000D+02 0.441554106787D-08 0.172002347400D+00
    0.167079269886D-05 0.382639945019D-02 0.120364129543D-04 0.515366532135D+04
    0.316800000000D+06 0.800937414169D-07-0.452566941378D+00 0.130385160446D-07
    0.950516915085D+00 0.142093750000D+03 0.136758422846D+00-0.798176104381D-08
   -0.331799535068D-09 0.100000000000D+01 0.206800000000D+04 0.000000000000D+00
    0.200000000000D+01 0.000000000000D+00 0.745058059692D-08 0.130000000000D+02
    0.309618000000D+06 0.400000000000D+01 0.000000000000D+00 0.000000000000D+00
27 19  8 28 16  0  0.0-0.378768891096D-04-0.118234311230D-10 0.000000000000D+00
    0.200000000000D+02 0.125812500000D+03 0.419624621907D-08-0.171590210607D+01
    0.637955963612D-05 0.715702527668D-02 0.520050525665D-05 0.515365407371D+04
    0.316800000000D+06 0.707805156708D-07 0.619404817840D+00-0.409781932831D-07
    0.978711765948D+00 0.287531250000D+03 0.515899874672D+00-0.805033532878D-08
    0.508235455761D-09 0.100000000000D+01 0.206800000000D+04 0.000000000000D+00
    0.200000000000D+01 0.000000000000D+00 0.139698386192D-08 0.200000000000D+02
    0.309618000000D+06 0.400000000000D+01 0.000000000000D+00 0.000000000000D+00
28 19  8 28 16  0  0.0 0.763684976846D-03-0.909494701773D-12 0.000000000000D+00
    0.700000000000D+01 0.839687500000D+02 0.371372612017D-08-0.898496092392D+00
    0.438280403614D-05 0.190244611585D-01 0.130645930767D-04 0.515371515846D+04
    0.316800000000D+06-0.307336449623D-06-0.334067620400D+00 0.128522515297D-06
    0.981253526131D+00 0.147281250000D+03-0.146031950374D+01-0.784032658107D-08
   -0.146791828755D-09 0.100000000000D+01 0.206800000000D+04 0.000000000000D+00
    0.200000000000D+01 0.000000000000D+00-0.111758708954D-07 0.700000000000D+01
    0.309618000000D+06 0.400000000000D+01 0.000000000000D+00 0.000000000000D+00
